[{"OBJECT_NAME":"STARLINK-6232","OBJECT_ID":"2023-088AP","EPOCH":"2026-03-09T22:00:01.999584","MEAN_MOTION":15.10502686,"ECCENTRICITY":0.00015635,"INCLINATION":42.9998,"RA_OF_ASC_NODE":92.9965,"ARG_OF_PERICENTER":301.7502,"MEAN_ANOMALY":161.9647,"EPHEMERIS_TYPE":0,"CLASSIFICATION_TYPE":"U","NORAD_CAT_ID":57085,"ELEMENT_SET_NO":999,"REV_AT_EPOCH":558,"BSTAR":0.0033529169,"MEAN_MOTION_DOT":0.00056427,"MEAN_MOTION_DDOT":0},{"OBJECT_NAME":"PACE","OBJECT_ID":"2014-033N","EPOCH":"2026-03-09T22:47:44.809152","MEAN_MOTION":15.09745465,"ECCENTRICITY":0.00061206,"INCLINATION":98.125,"RA_OF_ASC_NODE":67.7953,"ARG_OF_PERICENTER":179.3374,"MEAN_ANOMALY":180.7863,"EPHEMERIS_TYPE":0,"CLASSIFICATION_TYPE":"U","NORAD_CAT_ID":40022,"ELEMENT_SET_NO":999,"REV_AT_EPOCH":63805,"BSTAR":0.00051174262,"MEAN_MOTION_DOT":8.193e-5,"MEAN_MOTION_DDOT":0}]
